[{"OBJECT_NAME":"STARLINK-30146","OBJECT_ID":"2023-105N","EPOCH":"2026-03-09T22:00:01.999584","MEAN_MOTION":15.24370985,"ECCENTRICITY":9.65e-5,"INCLINATION":42.9993,"RA_OF_ASC_NODE":258.5873,"ARG_OF_PERICENTER":307.2589,"MEAN_ANOMALY":147.706,"EPHEMERIS_TYPE":0,"CLASSIFICATION_TYPE":"U","NORAD_CAT_ID":57442,"ELEMENT_SET_NO":999,"REV_AT_EPOCH":578,"BSTAR":0.033241649,"MEAN_MOTION_DOT":0.00895133,"MEAN_MOTION_DDOT":0},{"OBJECT_NAME":"OBSERVER-1A","OBJECT_ID":"2023-174BV","EPOCH":"2026-03-09T23:21:50.564160","MEAN_MOTION":15.36182735,"ECCENTRICITY":0.00094995,"INCLINATION":97.3975,"RA_OF_ASC_NODE":152.077,"ARG_OF_PERICENTER":145.4591,"MEAN_ANOMALY":214.7271,"EPHEMERIS_TYPE":0,"CLASSIFICATION_TYPE":"U","NORAD_CAT_ID":58323,"ELEMENT_SET_NO":999,"REV_AT_EPOCH":12996,"BSTAR":0.00045031382,"MEAN_MOTION_DOT":0.00015832,"MEAN_MOTION_DDOT":0}]
